H1 CPF 01  gfz 2021 10 27 12  8002 tandemx   
H2 1003001  6202 36605    2021 10 27 12 59 42 2021 11 01 00 00 42   120 1 1  0 0 0
H9
10 0 59516  23022.000000  0    6855841.969   -678850.134    -94373.527
10 0 59516  23142.000000  0    6765754.949   -848391.279   -996042.202
10 0 59516  23262.000000  0    6554720.892  -1000484.271  -1880196.838
10 0 59516  23382.000000  0    6226861.421  -1130406.363  -2731316.292
10 0 59516  23502.000000  0    5788422.131  -1233919.065  -3534490.312
10 0 59516  23622.000000  0    5247642.384  -1307377.056  -4275682.964
10 0 59516  23742.000000  0    4614588.233  -1347822.657  -4941976.208
10 0 59516  23862.000000  0    3900953.996  -1353064.623  -5521789.934
10 0 59516  23982.000000  0    3119836.249  -1321740.129  -6005075.191
10 0 59516  24102.000000  0    2285486.665  -1253357.801  -6383477.271
10 0 59516  24222.000000  0    1413049.503  -1148320.806  -6650469.144
10 0 59516  24342.000000  0     518287.271  -1007931.428  -6801453.313
10 0 59516  24462.000000  0    -382700.170   -834376.778  -6833832.602
10 0 59516  24582.000000  0   -1273758.904   -630695.188  -6747049.485
10 0 59516  24702.000000  0   -2138963.972   -400724.198  -6542595.084
10 0 59516  24822.000000  0   -2962897.637   -149030.400  -6223985.198
10 0 59516  24942.000000  0   -3730917.779    119177.150  -5796706.412
10 0 59516  25062.000000  0   -4429416.734    398149.724  -5268132.547
10 0 59516  25182.000000  0   -5046064.245    681715.598  -4647408.186
10 0 59516  25302.000000  0   -5570031.366    963409.324  -3945303.201
10 0 59516  25422.000000  0   -5992190.841   1236612.374  -3174035.734
10 0 59516  25542.000000  0   -6305287.684   1494700.877  -2347066.541
10 0 59516  25662.000000  0   -6504076.544   1731197.112  -1478867.714
10 0 59516  25782.000000  0   -6585422.229   1939922.151   -584669.094
10 0 59516  25902.000000  0   -6548358.821   2115144.788    319814.138
10 0 59516  26022.000000  0   -6394104.656   2251722.815   1218664.948
10 0 59516  26142.000000  0   -6126033.774   2345234.206   2096052.851
10 0 59516  26262.000000  0   -5749603.447   2392093.967   2936522.076
10 0 59516  26382.000000  0   -5272239.935   2389652.938   3725272.075
10 0 59516  26502.000000  0   -4703184.945   2336275.938   4448424.405
10 0 59516  26622.000000  0   -4053307.942   2231398.334   5093269.041
10 0 59516  26742.000000  0   -3334890.429   2075559.815   5648487.060
10 0 59516  26862.000000  0   -2561386.260   1870415.297   6104347.360
10 0 59516  26982.000000  0   -1747161.877   1618721.706   6452872.917
10 0 59516  27102.000000  0    -907223.913   1324301.112   6687973.954
10 0 59516  27222.000000  0     -56940.353    991981.809   6805546.905
10 0 59516  27342.000000  0     788240.096    627518.370   6803541.125
10 0 59516  27462.000000  0    1613067.615    237491.939   6681992.216
10 0 59516  27582.000000  0    2402765.087   -170807.828   6443021.642
10 0 59516  27702.000000  0    3143292.540   -589518.240   6090803.256
10 0 59516  27822.000000  0    3821598.883  -1010353.550   5631495.141
10 0 59516  27942.000000  0    4425855.775  -1424767.659   5073137.400
10 0 59516  28062.000000  0    4945668.916  -1824126.729   4425517.290
10 0 59516  28182.000000  0    5372264.832  -2199887.633   3700003.330
10 0 59516  28302.000000  0    5698648.319  -2543779.773   2909348.118
10 0 59516  28422.000000  0    5919724.491  -2847985.631   2067463.252
10 0 59516  28542.000000  0    6032384.111  -3105315.184   1189172.292
10 0 59516  28662.000000  0    6035550.882  -3309371.085    289944.033
10 0 59516  28782.000000  0    5930186.157  -3454698.626   -614387.985
10 0 59516  28902.000000  0    5719253.637  -3536917.855  -1507913.571
10 0 59516  29022.000000  0    5407641.535  -3552832.646  -2374934.900
10 0 59516  29142.000000  0    5002047.875  -3500515.874  -3200248.242
10 0 59516  29262.000000  0    4510831.182  -3379368.416  -3969414.636
10 0 59516  29382.000000  0    3943830.592  -3190150.980  -4669012.683
10 0 59516  29502.000000  0    3312160.265  -2934987.613  -5286869.468
10 0 59516  29622.000000  0    2627984.351  -2617341.655  -5812264.160
10 0 59516  29742.000000  0    1904279.315  -2241967.248  -6236103.468
10 0 59516  29862.000000  0    1154586.631  -1814836.116  -6551069.710
10 0 59516  29982.000000  0     392759.292  -1343039.386  -6751736.664
10 0 59516  30102.000000  0    -367290.874   -834669.381  -6834652.641
10 0 59516  30222.000000  0   -1111841.580   -298682.681  -6798392.582
10 0 59516  30342.000000  0   -1827601.976    255254.065  -6643579.812
10 0 59516  30462.000000  0   -2501944.418    816934.060  -6372875.692
10 0 59516  30582.000000  0   -3123122.172   1375793.274  -5990938.930
10 0 59516  30702.000000  0   -3680471.588   1921104.206  -5504354.777
10 0 59516  30822.000000  0   -4164597.330   2442178.288  -4921533.549
10 0 59516  30942.000000  0   -4567535.830   2928574.148  -4252576.142
10 0 59516  31062.000000  0   -4882892.509   3370306.315  -3509108.737
10 0 59516  31182.000000  0   -5105951.377   3758051.255  -2704090.188
10 0 59516  31302.000000  0   -5233753.598   4083346.456  -1851591.181
10 0 59516  31422.000000  0   -5265142.534   4338776.538   -966550.160
10 0 59516  31542.000000  0   -5200773.943   4518142.424    -64509.041
10 0 59516  31662.000000  0   -5043089.409   4616609.007    838665.790
10 0 59516  31782.000000  0   -4796252.772   4630825.530   1727071.897
10 0 59516  31902.000000  0   -4466051.060   4559015.714   2585060.285
10 0 59516  32022.000000  0   -4059762.349   4401036.457   3397519.455
10 0 59516  32142.000000  0   -3585994.823   4158402.975   4150148.117
10 0 59516  32262.000000  0   -3054501.920   3834279.927   4829710.850
10 0 59516  32382.000000  0   -2475977.599   3433439.277   5424272.683
10 0 59516  32502.000000  0   -1861836.253   2962185.835   5923407.155
10 0 59516  32622.000000  0   -1223983.033   2428252.813   6318374.914
10 0 59516  32742.000000  0    -574579.902   1840669.380   6602269.737
10 0 59516  32862.000000  0      74185.901   1209604.911   6770132.505
10 0 59516  32982.000000  0     710330.551    546190.955   6819033.095
10 0 59516  33102.000000  0    1322294.193   -137675.109   6748117.596
10 0 59516  33222.000000  0    1899149.909   -829542.570   6558622.978
10 0 59516  33342.000000  0    2430798.427  -1516633.654   6253857.126
10 0 59516  33462.000000  0    2908145.919  -2186078.723   5839145.677
10 0 59516  33582.000000  0    3323262.381  -2825158.329   5321744.269
10 0 59516  33702.000000  0    3669516.605  -3421546.679   4710717.496
10 0 59516  33822.000000  0    3941686.324  -3963552.898   4016785.642
10 0 59516  33942.000000  0    4136040.933  -4440355.046   3252140.047
10 0 59516  34062.000000  0    4250394.239  -4842221.728   2430230.129
10 0 59516  34182.000000  0    4284126.553  -5160715.801   1565524.787
10 0 59516  34302.000000  0    4238174.418  -5388874.658    673252.661
10 0 59516  34422.000000  0    4114987.790  -5521362.049   -230873.126
10 0 59516  34542.000000  0    3918457.630  -5554588.876  -1130939.090
10 0 59516  34662.000000  0    3653813.337  -5486799.419  -2011121.263
10 0 59516  34782.000000  0    3327493.391  -5318119.059  -2855970.693
10 0 59516  34902.000000  0    2946993.916  -5050564.580  -3650690.368
10 0 59516  35022.000000  0    2520697.416  -4688016.205  -4381396.766
10 0 59516  35142.000000  0    2057687.137  -4236153.242  -5035360.548
10 0 59516  35262.000000  0    1567553.087  -3702354.997  -5601222.062
10 0 59516  35382.000000  0    1060194.330  -3095571.625  -6069179.048
10 0 59516  35502.000000  0     545620.309  -2426168.241  -6431145.921
10 0 59516  35622.000000  0      33755.444  -1705743.910  -6680882.627
10 0 59516  35742.000000  0    -465748.361   -946929.357  -6814091.571
10 0 59516  35862.000000  0    -943688.457   -163167.459  -6828483.400
10 0 59516  35982.000000  0   -1391476.643    631520.031  -6723811.297
10 0 59516  36102.000000  0   -1801289.970   1422776.638  -6501874.361
10 0 59516  36222.000000  0   -2166204.074   2196164.063  -6166489.922
10 0 59516  36342.000000  0   -2480309.054   2937419.553  -5723436.094
10 0 59516  36462.000000  0   -2738805.739   3632716.303  -5180362.647
10 0 59516  36582.000000  0   -2938080.919   4268921.616  -4546670.958
10 0 59516  36702.000000  0   -3075760.189   4833848.820  -3833361.691
10 0 59516  36822.000000  0   -3150735.492   5316495.914  -3052851.805
10 0 59516  36942.000000  0   -3163167.488   5707266.359  -2218766.084
10 0 59516  37062.000000  0   -3114463.489   5998169.875  -1345703.464
10 0 59516  37182.000000  0   -3007228.160   6182994.708   -448979.926
10 0 59516  37302.000000  0   -2845190.274   6257445.805    455643.119
10 0 59516  37422.000000  0   -2633107.530   6219249.467   1352243.430
10 0 59516  37542.000000  0   -2376646.735   6068214.809   2225030.018
10 0 59516  37662.000000  0   -2082245.301   5806250.877   3058630.539
10 0 59516  37782.000000  0   -1756959.232   5437342.080   3838368.794
10 0 59516  37902.000000  0   -1408301.010   4967482.839   4550527.930
10 0 59516  38022.000000  0   -1044070.686   4404572.492   5182594.555
10 0 59516  38142.000000  0    -672183.472   3758273.199   5723477.703
10 0 59516  38262.000000  0    -300500.848   3039835.712   6163700.005
10 0 59516  38382.000000  0      63333.319   2261895.422   6495558.443
10 0 59516  38502.000000  0     412047.741   1438245.418   6713252.873
10 0 59516  38622.000000  0     738887.479    583588.351   6812981.964
10 0 59516  38742.000000  0    1037743.286   -286726.568   6793004.295
10 0 59516  38862.000000  0    1303264.865  -1156978.113   6653667.878
10 0 59516  38982.000000  0    1530956.588  -2011356.781   6397404.802
10 0 59516  39102.000000  0    1717253.964  -2834251.816   6028692.035
10 0 59516  39222.000000  0    1859579.740  -3610538.249   5553977.891
10 0 59516  39342.000000  0    1956378.405  -4325858.008   4981574.133
10 0 59516  39462.000000  0    2007129.143  -4966889.161   4321515.980
99
